{
  "type": "FeatureCollection",
  "features": [
    {
      "type": "Feature",
      "properties": {
        "norad_id": 58647,
        "name": "TIANMU-1 13",
        "group": "weather",
        "lat": 75.16745573307955,
        "lon": -153.6026866018387,
        "alt_km": 489.6008500519092,
        "timestamp": "2025-12-03T08:58:45.641739+00:00",
        "meta_object_name": "TIANMU-1 13",
        "meta_object_id": "2023-205C",
        "meta_epoch": "2025-12-03T03:48:11.238624",
        "meta_mean_motion": 15.24331398,
        "meta_eccentricity": 0.0006423,
        "meta_inclination": 97.3628,
        "meta_ra_of_asc_node": 356.9574,
        "meta_arg_of_pericenter": 310.3492,
        "meta_mean_anomaly": 49.7184,
        "meta_ephemeris_type": 0,
        "meta_classification_type": "U",
        "meta_norad_cat_id": 58647,
        "meta_element_set_no": 999,
        "meta_rev_at_epoch": 10761,
        "meta_bstar": 0.00035514,
        "meta_mean_motion_dot": 8.624e-05,
        "meta_mean_motion_ddot": 0,
        "tle_line1": "1 58647U 23205C   25337.15846341  .00008624  00000+0  35514-3 0  9994",
        "tle_line2": "2 58647  97.3628 356.9574 0006423 310.3492  49.7184 15.24331398107610"
      },
      "geometry": {
        "type": "Point",
        "coordinates": [
          -153.6026866018387,
          75.16745573307955
        ]
      }
    },
    {
      "type": "Feature",
      "properties": {
        "norad_id": 58648,
        "name": "TIANMU-1 14",
        "group": "weather",
        "lat": -14.364707498269464,
        "lon": 174.63061548446973,
        "alt_km": 500.047681741441,
        "timestamp": "2025-12-03T08:58:45.641750+00:00",
        "meta_object_name": "TIANMU-1 14",
        "meta_object_id": "2023-205D",
        "meta_epoch": "2025-12-03T03:24:08.072640",
        "meta_mean_motion": 15.24316033,
        "meta_eccentricity": 0.0007322,
        "meta_inclination": 97.356,
        "meta_ra_of_asc_node": 356.2985,
        "meta_arg_of_pericenter": 314.5275,
        "meta_mean_anomaly": 45.5364,
        "meta_ephemeris_type": 0,
        "meta_classification_type": "U",
        "meta_norad_cat_id": 58648,
        "meta_element_set_no": 999,
        "meta_rev_at_epoch": 10761,
        "meta_bstar": 0.00036532,
        "meta_mean_motion_dot": 8.87e-05,
        "meta_mean_motion_ddot": 0,
        "tle_line1": "1 58648U 23205D   25337.14176010  .00008870  00000+0  36532-3 0  9997",
        "tle_line2": "2 58648  97.3560 356.2985 0007322 314.5275  45.5364 15.24316033107612"
      },
      "geometry": {
        "type": "Point",
        "coordinates": [
          174.63061548446973,
          -14.364707498269464
        ]
      }
    },
    {
      "type": "Feature",
      "properties": {
        "norad_id": 58660,
        "name": "TIANMU-1 19",
        "group": "weather",
        "lat": -21.685991355748506,
        "lon": 91.41032937178953,
        "alt_km": 486.44089523062485,
        "timestamp": "2025-12-03T08:58:45.641760+00:00",
        "meta_object_name": "TIANMU-1 19",
        "meta_object_id": "2023-208A",
        "meta_epoch": "2025-12-03T05:55:50.193408",
        "meta_mean_motion": 15.27571648,
        "meta_eccentricity": 0.0004097,
        "meta_inclination": 97.4393,
        "meta_ra_of_asc_node": 88.3051,
        "meta_arg_of_pericenter": 295.4884,
        "meta_mean_anomaly": 64.5931,
        "meta_ephemeris_type": 0,
        "meta_classification_type": "U",
        "meta_norad_cat_id": 58660,
        "meta_element_set_no": 999,
        "meta_rev_at_epoch": 10737,
        "meta_bstar": 0.0004846,
        "meta_mean_motion_dot": 0.00013004,
        "meta_mean_motion_ddot": 0,
        "tle_line1": "1 58660U 23208A   25337.24710872  .00013004  00000+0  48460-3 0  9993",
        "tle_line2": "2 58660  97.4393  88.3051 0004097 295.4884  64.5931 15.27571648107379"
      },
      "geometry": {
        "type": "Point",
        "coordinates": [
          91.41032937178953,
          -21.685991355748506
        ]
      }
    },
    {
      "type": "Feature",
      "properties": {
        "norad_id": 58661,
        "name": "TIANMU-1 20",
        "group": "weather",
        "lat": 12.185654693855225,
        "lon": 87.25477184835803,
        "alt_km": 479.1613944975652,
        "timestamp": "2025-12-03T08:58:45.641770+00:00",
        "meta_object_name": "TIANMU-1 20",
        "meta_object_id": "2023-208B",
        "meta_epoch": "2025-12-03T04:12:47.005056",
        "meta_mean_motion": 15.28762421,
        "meta_eccentricity": 0.0006469,
        "meta_inclination": 97.4329,
        "meta_ra_of_asc_node": 88.672,
        "meta_arg_of_pericenter": 305.8023,
        "meta_mean_anomaly": 54.2615,
        "meta_ephemeris_type": 0,
        "meta_classification_type": "U",
        "meta_norad_cat_id": 58661,
        "meta_element_set_no": 999,
        "meta_rev_at_epoch": 10743,
        "meta_bstar": 0.00045364,
        "meta_mean_motion_dot": 0.00012623,
        "meta_mean_motion_ddot": 0,
        "tle_line1": "1 58661U 23208B   25337.17554404  .00012623  00000+0  45364-3 0  9999",
        "tle_line2": "2 58661  97.4329  88.6720 0006469 305.8023  54.2615 15.28762421107435"
      },
      "geometry": {
        "type": "Point",
        "coordinates": [
          87.25477184835803,
          12.185654693855225
        ]
      }
    },
    {
      "type": "Feature",
      "properties": {
        "norad_id": 58662,
        "name": "TIANMU-1 21",
        "group": "weather",
        "lat": -65.6672680678332,
        "lon": 107.5284413981237,
        "alt_km": 475.3282729610237,
        "timestamp": "2025-12-03T08:58:45.641779+00:00",
        "meta_object_name": "TIANMU-1 21",
        "meta_object_id": "2023-208C",
        "meta_epoch": "2025-12-03T04:33:54.357408",
        "meta_mean_motion": 15.31225503,
        "meta_eccentricity": 0.0005972,
        "meta_inclination": 97.4376,
        "meta_ra_of_asc_node": 90.5526,
        "meta_arg_of_pericenter": 300.0168,
        "meta_mean_anomaly": 60.048,
        "meta_ephemeris_type": 0,
        "meta_classification_type": "U",
        "meta_norad_cat_id": 58662,
        "meta_element_set_no": 999,
        "meta_rev_at_epoch": 10753,
        "meta_bstar": 0.00049712,
        "meta_mean_motion_dot": 0.00014936,
        "meta_mean_motion_ddot": 0,
        "tle_line1": "1 58662U 23208C   25337.19021247  .00014936  00000+0  49712-3 0  9996",
        "tle_line2": "2 58662  97.4376  90.5526 0005972 300.0168  60.0480 15.31225503107534"
      },
      "geometry": {
        "type": "Point",
        "coordinates": [
          107.5284413981237,
          -65.6672680678332
        ]
      }
    },
    {
      "type": "Feature",
      "properties": {
        "norad_id": 58663,
        "name": "TIANMU-1 22",
        "group": "weather",
        "lat": -12.638355071642701,
        "lon": 90.17386236042034,
        "alt_km": 486.29436810084826,
        "timestamp": "2025-12-03T08:58:45.641790+00:00",
        "meta_object_name": "TIANMU-1 22",
        "meta_object_id": "2023-208D",
        "meta_epoch": "2025-12-03T05:53:24.966240",
        "meta_mean_motion": 15.27345736,
        "meta_eccentricity": 0.0003077,
        "meta_inclination": 97.4387,
        "meta_ra_of_asc_node": 88.3667,
        "meta_arg_of_pericenter": 331.7815,
        "meta_mean_anomaly": 28.3257,
        "meta_ephemeris_type": 0,
        "meta_classification_type": "U",
        "meta_norad_cat_id": 58663,
        "meta_element_set_no": 999,
        "meta_rev_at_epoch": 10738,
        "meta_bstar": 0.0004567,
        "meta_mean_motion_dot": 0.00012165,
        "meta_mean_motion_ddot": 0,
        "tle_line1": "1 58663U 23208D   25337.24542785  .00012165  00000+0  45670-3 0  9999",
        "tle_line2": "2 58663  97.4387  88.3667 0003077 331.7815  28.3257 15.27345736107380"
      },
      "geometry": {
        "type": "Point",
        "coordinates": [
          90.17386236042034,
          -12.638355071642701
        ]
      }
    },
    {
      "type": "Feature",
      "properties": {
        "norad_id": 58700,
        "name": "TIANMU-1 15",
        "group": "weather",
        "lat": -34.05427774877127,
        "lon": -26.205209924032985,
        "alt_km": 500.73258871626876,
        "timestamp": "2025-12-03T08:58:45.641800+00:00",
        "meta_object_name": "TIANMU-1 15",
        "meta_object_id": "2024-004A",
        "meta_epoch": "2025-12-03T04:53:28.415040",
        "meta_mean_motion": 15.24474622,
        "meta_eccentricity": 0.0005799,
        "meta_inclination": 97.4625,
        "meta_ra_of_asc_node": 158.7079,
        "meta_arg_of_pericenter": 336.6565,
        "meta_mean_anomaly": 23.4408,
        "meta_ephemeris_type": 0,
        "meta_classification_type": "U",
        "meta_norad_cat_id": 58700,
        "meta_element_set_no": 999,
        "meta_rev_at_epoch": 10589,
        "meta_bstar": 0.00038799,
        "meta_mean_motion_dot": 9.467e-05,
        "meta_mean_motion_ddot": 0,
        "tle_line1": "1 58700U 24004A   25337.20380110  .00009467  00000+0  38799-3 0  9999",
        "tle_line2": "2 58700  97.4625 158.7079 0005799 336.6565  23.4408 15.24474622105897"
      },
      "geometry": {
        "type": "Point",
        "coordinates": [
          -26.205209924032985,
          -34.05427774877127
        ]
      }
    }
  ]
}